[{"OBJECT_NAME":"IRIDIUM 105","OBJECT_ID":"2017-003E","EPOCH":"2026-03-09T19:29:46.518144","MEAN_MOTION":14.34401202,"ECCENTRICITY":0.0002251,"INCLINATION":86.3921,"RA_OF_ASC_NODE":98.4421,"ARG_OF_PERICENTER":92.6468,"MEAN_ANOMALY":267.4986,"EPHEMERIS_TYPE":0,"CLASSIFICATION_TYPE":"U","NORAD_CAT_ID":41921,"ELEMENT_SET_NO":999,"REV_AT_EPOCH":48089,"BSTAR":7.7196279e-5,"MEAN_MOTION_DOT":2.37e-6,"MEAN_MOTION_DDOT":0},{"OBJECT_NAME":"CZ-4 DEB","OBJECT_ID":"1990-081CZ","EPOCH":"2026-03-06T07:25:44.762304","MEAN_MOTION":14.09750964,"ECCENTRICITY":0.01496655,"INCLINATION":98.8494,"RA_OF_ASC_NODE":253.2263,"ARG_OF_PERICENTER":337.9658,"MEAN_ANOMALY":21.5122,"EPHEMERIS_TYPE":0,"CLASSIFICATION_TYPE":"U","NORAD_CAT_ID":37613,"ELEMENT_SET_NO":999,"REV_AT_EPOCH":11819,"BSTAR":0.0027590431,"MEAN_MOTION_DOT":5.334e-5,"MEAN_MOTION_DDOT":0}]
